STARLINK-30813          
1 58213U 23170H   26067.44822676 -.00027426  00000+0 -10147-2 0  9999
2 58213  43.0016 200.8924 0002190 276.2944  83.7658 15.26795732130116
FLOCK 4G-9              
1 62622U 25009P   26068.80935633  .00010752  00000+0  41817-3 0  9991
2 62622  97.4000 150.6115 0003614 328.2191  31.8829 15.26202239 63696
